[{"OBJECT_NAME":"STARLINK-31731","OBJECT_ID":"2024-071Q","EPOCH":"2026-03-09T03:05:19.525344","MEAN_MOTION":15.27579788,"ECCENTRICITY":1.589e-5,"INCLINATION":42.9998,"RA_OF_ASC_NODE":342.5812,"ARG_OF_PERICENTER":254.2936,"MEAN_ANOMALY":105.7898,"EPHEMERIS_TYPE":0,"CLASSIFICATION_TYPE":"U","NORAD_CAT_ID":59498,"ELEMENT_SET_NO":999,"REV_AT_EPOCH":10812,"BSTAR":1.436676e-5,"MEAN_MOTION_DOT":1.34e-6,"MEAN_MOTION_DDOT":0},{"OBJECT_NAME":"AL MUNTHER","OBJECT_ID":"2025-052AG","EPOCH":"2026-03-09T15:29:23.207136","MEAN_MOTION":15.28381521,"ECCENTRICITY":0.0008027,"INCLINATION":97.4001,"RA_OF_ASC_NODE":323.9152,"ARG_OF_PERICENTER":130.7043,"MEAN_ANOMALY":229.4895,"EPHEMERIS_TYPE":0,"CLASSIFICATION_TYPE":"U","NORAD_CAT_ID":63240,"ELEMENT_SET_NO":999,"REV_AT_EPOCH":5479,"BSTAR":0.00065015,"MEAN_MOTION_DOT":0.00017933,"MEAN_MOTION_DDOT":0}]
